start=new Date('2022-12-29T00:00:00.000Z').valueOf();
sats=[{"OBJECT_ID":"2022-083M","ELEMENT_SET_NO":"999","ECCENTRICITY":"0.00016210","SEMIMAJOR_AXIS":"6917.841","LAUNCH_DATE":"2022-07-17","FILE":"3724805","REF_FRAME":"TEME","MEAN_MOTION":"15.08853019","DECAY_DATE":null,"MEAN_ELEMENT_THEORY":"SGP4","REV_AT_EPOCH":"2494","MEAN_MOTION_DDOT":"0.0000000000000","INCLINATION":"53.2183","RCS_SIZE":"LARGE","OBJECT_NAME":"STARLINK-4102","OBJECT_TYPE":"PAYLOAD","PERIOD":"95.437","NORAD_CAT_ID":"53143","TLE_LINE1":"1 53143U 22083M   22362.02777969  .00003147  00000-0  21563-3 0  9998","EPOCH":"2022-12-28T00:40:00.165216","PERIAPSIS":"538.584","GP_ID":"221666088","SITE":"AFETR","COUNTRY_CODE":"US","EPHEMERIS_TYPE":"0","CENTER_NAME":"EARTH","MEAN_ANOMALY":"302.7785","APOAPSIS":"540.827","BSTAR":"0.00021563000000","CLASSIFICATION_TYPE":"U","ARG_OF_PERICENTER":"57.3363","RA_OF_ASC_NODE":"15.9626","MEAN_MOTION_DOT":"0.00003147","TIME_SYSTEM":"UTC","TLE_LINE2":"2 53143  53.2183  15.9626 0001621  57.3363 302.7785 15.08853019 24947"},{"MEAN_MOTION_DOT":"0.00003274","TIME_SYSTEM":"UTC","TLE_LINE2":"2 53144  53.2157  14.1359 0003017  29.6869 330.4294 15.08851779 25009","BSTAR":"0.00022367000000","CLASSIFICATION_TYPE":"U","ARG_OF_PERICENTER":"29.6869","RA_OF_ASC_NODE":"14.1359","SITE":"AFETR","COUNTRY_CODE":"US","EPHEMERIS_TYPE":"0","CENTER_NAME":"EARTH","MEAN_ANOMALY":"330.4294","APOAPSIS":"541.796","TLE_LINE1":"1 53144U 22083N   22362.43626207  .00003274  00000-0  22367-3 0  9996","EPOCH":"2022-12-28T10:28:13.042848","PERIAPSIS":"537.622","GP_ID":"221666300","PERIOD":"95.437","NORAD_CAT_ID":"53144","RCS_SIZE":"LARGE","OBJECT_NAME":"STARLINK-4100","OBJECT_TYPE":"PAYLOAD","MEAN_MOTION":"15.08851779","MEAN_ELEMENT_THEORY":"SGP4","DECAY_DATE":null,"REV_AT_EPOCH":"2500","MEAN_MOTION_DDOT":"0.0000000000000","INCLINATION":"53.2157","OBJECT_ID":"2022-083N","ELEMENT_SET_NO":"999","ECCENTRICITY":"0.00030170","LAUNCH_DATE":"2022-07-17","SEMIMAJOR_AXIS":"6917.844","FILE":"3724805","REF_FRAME":"TEME"},{"COUNTRY_CODE":"US","SITE":"AFETR","EPHEMERIS_TYPE":"0","CENTER_NAME":"EARTH","MEAN_ANOMALY":"331.6867","APOAPSIS":"541.669","TLE_LINE1":"1 53145U 22083P   22362.41786944  .00001110  00000-0  87838-4 0  9992","EPOCH":"2022-12-28T10:01:43.919616","PERIAPSIS":"537.831","GP_ID":"221666921","MEAN_MOTION_DOT":"0.00001110","TIME_SYSTEM":"UTC","TLE_LINE2":"2 53145  53.2187  14.2014 0002774  28.4277 331.6867 15.08838454 25005","BSTAR":"0.00008783800000","CLASSIFICATION_TYPE":"U","ARG_OF_PERICENTER":"28.4277","RA_OF_ASC_NODE":"14.2014","MEAN_MOTION":"15.08838454","DECAY_DATE":null,"MEAN_ELEMENT_THEORY":"SGP4","REV_AT_EPOCH":"2500","INCLINATION":"53.2187","MEAN_MOTION_DDOT":"0.0000000000000","OBJECT_ID":"2022-083P","ELEMENT_SET_NO":"999","ECCENTRICITY":"0.00027740","LAUNCH_DATE":"2022-07-17","SEMIMAJOR_AXIS":"6917.885","FILE":"3724805","REF_FRAME":"TEME","PERIOD":"95.438","NORAD_CAT_ID":"53145","RCS_SIZE":"LARGE","OBJECT_NAME":"STARLINK-4106","OBJECT_TYPE":"PAYLOAD"},{"OBJECT_TYPE":"PAYLOAD","OBJECT_NAME":"STARLINK-4099","RCS_SIZE":"LARGE","NORAD_CAT_ID":"53146","PERIOD":"95.437","REF_FRAME":"TEME","FILE":"3724805","LAUNCH_DATE":"2022-07-17","SEMIMAJOR_AXIS":"6917.861","ECCENTRICITY":"0.00027700","ELEMENT_SET_NO":"999","OBJECT_ID":"2022-083Q","INCLINATION":"53.2176","MEAN_MOTION_DDOT":"0.0000000000000","REV_AT_EPOCH":"2499","MEAN_ELEMENT_THEORY":"SGP4","DECAY_DATE":null,"MEAN_MOTION":"15.08846342","RA_OF_ASC_NODE":"14.4444","ARG_OF_PERICENTER":"30.8590","BSTAR":"0.00010872000000","CLASSIFICATION_TYPE":"U","TLE_LINE2":"2 53146  53.2176  14.4444 0002770  30.8590 329.2565 15.08846342 24994","TIME_SYSTEM":"UTC","MEAN_MOTION_DOT":"0.00001443","GP_ID":"221665877","PERIAPSIS":"537.810","EPOCH":"2022-12-28T08:47:31.980768","TLE_LINE1":"1 53146U 22083Q   22362.36634237  .00001443  00000-0  10872-3 0  9996","APOAPSIS":"541.642","MEAN_ANOMALY":"329.2565","CENTER_NAME":"EARTH","EPHEMERIS_TYPE":"0","COUNTRY_CODE":"US","SITE":"AFETR"},{"SEMIMAJOR_AXIS":"6917.854","LAUNCH_DATE":"2022-07-17","ECCENTRICITY":"0.00029020","REF_FRAME":"TEME","FILE":"3724805","OBJECT_ID":"2022-083R","ELEMENT_SET_NO":"999","MEAN_MOTION_DDOT":"0.0000000000000","INCLINATION":"53.2181","MEAN_MOTION":"15.08848562","REV_AT_EPOCH":"2565","DECAY_DATE":null,"MEAN_ELEMENT_THEORY":"SGP4","OBJECT_NAME":"STARLINK-4094","OBJECT_TYPE":"PAYLOAD","RCS_SIZE":"LARGE","NORAD_CAT_ID":"53147","PERIOD":"95.437","GP_ID":"221665660","TLE_LINE1":"1 53147U 22083R   22362.41418418  .00001300  00000-0  99782-4 0  9994","PERIAPSIS":"537.712","EPOCH":"2022-12-28T09:56:25.513152","APOAPSIS":"541.727","MEAN_ANOMALY":"331.7877","EPHEMERIS_TYPE":"0","SITE":"AFETR","COUNTRY_CODE":"US","CENTER_NAME":"EARTH","RA_OF_ASC_NODE":"14.2161","CLASSIFICATION_TYPE":"U","BSTAR":"0.00009978200000","ARG_OF_PERICENTER":"28.3273","TLE_LINE2":"2 53147  53.2181  14.2161 0002902  28.3273 331.7877 15.08848562 25656","TIME_SYSTEM":"UTC","MEAN_MOTION_DOT":"0.00001300"},{"MEAN_MOTION_DOT":"0.00002320","TIME_SYSTEM":"UTC","TLE_LINE2":"2 53148  53.2186  15.9742 0002498  38.9646 321.1526 15.08855746 24943","ARG_OF_PERICENTER":"38.9646","BSTAR":"0.00016374000000","CLASSIFICATION_TYPE":"U","RA_OF_ASC_NODE":"15.9742","CENTER_NAME":"EARTH","SITE":"AFETR","COUNTRY_CODE":"US","EPHEMERIS_TYPE":"0","MEAN_ANOMALY":"321.1526","APOAPSIS":"541.425","PERIAPSIS":"537.969","EPOCH":"2022-12-28T00:34:42.488832","TLE_LINE1":"1 53148U 22083S   22362.02410288  .00002320  00000-0  16374-3 0  9997","GP_ID":"221666716","PERIOD":"95.437","NORAD_CAT_ID":"53148","RCS_SIZE":"LARGE","OBJECT_TYPE":"PAYLOAD","OBJECT_NAME":"STARLINK-4066","DECAY_DATE":null,"MEAN_ELEMENT_THEORY":"SGP4","REV_AT_EPOCH":"2494","MEAN_MOTION":"15.08855746","INCLINATION":"53.2186","MEAN_MOTION_DDOT":"0.0000000000000","ELEMENT_SET_NO":"999","OBJECT_ID":"2022-083S","FILE":"3724805","REF_FRAME":"TEME","ECCENTRICITY":"0.00024980","SEMIMAJOR_AXIS":"6917.832","LAUNCH_DATE":"2022-07-17"},{"INCLINATION":"53.2178","MEAN_MOTION_DDOT":"0.0000000000000","MEAN_MOTION":"15.08850553","DECAY_DATE":null,"MEAN_ELEMENT_THEORY":"SGP4","REV_AT_EPOCH":"2514","ECCENTRICITY":"0.00027630","LAUNCH_DATE":"2022-07-17","SEMIMAJOR_AXIS":"6917.848","FILE":"3724805","REF_FRAME":"TEME","OBJECT_ID":"2022-083T","ELEMENT_SET_NO":"999","NORAD_CAT_ID":"53149","PERIOD":"95.437","OBJECT_NAME":"STARLINK-4021","OBJECT_TYPE":"PAYLOAD","RCS_SIZE":"LARGE","MEAN_ANOMALY":"344.6554","APOAPSIS":"541.625","SITE":"AFETR","COUNTRY_CODE":"US","EPHEMERIS_TYPE":"0","CENTER_NAME":"EARTH","GP_ID":"221666505","TLE_LINE1":"1 53149U 22083T   22362.42245925  .00001354  00000-0  10312-3 0  9998","PERIAPSIS":"537.802","EPOCH":"2022-12-28T10:08:20.479200","TIME_SYSTEM":"UTC","TLE_LINE2":"2 53149  53.2178   4.1803 0002763  15.4522 344.6554 15.08850553 25146","MEAN_MOTION_DOT":"0.00001354","RA_OF_ASC_NODE":"4.1803","BSTAR":"0.00010312000000","CLASSIFICATION_TYPE":"U","ARG_OF_PERICENTER":"15.4522"},{"OBJECT_ID":"2022-083U","ELEMENT_SET_NO":"999","ECCENTRICITY":"0.00028700","SEMIMAJOR_AXIS":"6917.801","LAUNCH_DATE":"2022-07-17","FILE":"3724805","REF_FRAME":"TEME","MEAN_MOTION":"15.08865839","DECAY_DATE":null,"MEAN_ELEMENT_THEORY":"SGP4","REV_AT_EPOCH":"2507","INCLINATION":"53.2165","MEAN_MOTION_DDOT":"0.0000000000000","RCS_SIZE":"LARGE","OBJECT_NAME":"STARLINK-4038","OBJECT_TYPE":"PAYLOAD","PERIOD":"95.436","NORAD_CAT_ID":"53150","TLE_LINE1":"1 53150U 22083U   22361.99926190  .00007053  00000-0  46050-3 0  9991","PERIAPSIS":"537.681","EPOCH":"2022-12-27T23:58:56.228160","GP_ID":"221665449","SITE":"AFETR","COUNTRY_CODE":"US","EPHEMERIS_TYPE":"0","CENTER_NAME":"EARTH","MEAN_ANOMALY":"331.9743","APOAPSIS":"541.652","CLASSIFICATION_TYPE":"U","BSTAR":"0.00046050000000","ARG_OF_PERICENTER":"28.1404","RA_OF_ASC_NODE":"6.0759","MEAN_MOTION_DOT":"0.00007053","TIME_SYSTEM":"UTC","TLE_LINE2":"2 53150  53.2165   6.0759 0002870  28.1404 331.9743 15.08865839 25078"},{"OBJECT_TYPE":"PAYLOAD","OBJECT_NAME":"STARLINK-4040","RCS_SIZE":"LARGE","NORAD_CAT_ID":"53151","PERIOD":"95.437","FILE":"3723863","REF_FRAME":"TEME","ECCENTRICITY":"0.00028490","SEMIMAJOR_AXIS":"6917.855","LAUNCH_DATE":"2022-07-17","ELEMENT_SET_NO":"999","OBJECT_ID":"2022-083V","INCLINATION":"53.2193","MEAN_MOTION_DDOT":"0.0000000000000","DECAY_DATE":null,"MEAN_ELEMENT_THEORY":"SGP4","REV_AT_EPOCH":"2499","MEAN_MOTION":"15.08848156","RA_OF_ASC_NODE":"8.5077","ARG_OF_PERICENTER":"19.9297","BSTAR":"0.00005452500000","CLASSIFICATION_TYPE":"U","TIME_SYSTEM":"UTC","TLE_LINE2":"2 53151  53.2193   8.5077 0002849  19.9297 340.1806 15.08848156 24999","MEAN_MOTION_DOT":"0.00000580","GP_ID":"221567169","PERIAPSIS":"537.750","EPOCH":"2022-12-27T10:59:57.628032","TLE_LINE1":"1 53151U 22083V   22361.45830588  .00000580  00000-0  54525-4 0  9993","MEAN_ANOMALY":"340.1806","APOAPSIS":"541.691","CENTER_NAME":"EARTH","COUNTRY_CODE":"US","SITE":"AFETR","EPHEMERIS_TYPE":"0"},{"GP_ID":"221668045","TLE_LINE1":"1 53152U 22083W   22362.39301951 -.00003519  00000-0 -20304-3 0  9999","EPOCH":"2022-12-28T09:25:56.885664","PERIAPSIS":"537.680","APOAPSIS":"541.773","MEAN_ANOMALY":"328.6178","EPHEMERIS_TYPE":"0","COUNTRY_CODE":"US","SITE":"AFETR","CENTER_NAME":"EARTH","RA_OF_ASC_NODE":"4.3101","CLASSIFICATION_TYPE":"U","BSTAR":"-0.00020304000000","ARG_OF_PERICENTER":"31.4991","TLE_LINE2":"2 53152  53.2170   4.3101 0002958  31.4991 328.6178 15.08846272 25764","TIME_SYSTEM":"UTC","MEAN_MOTION_DOT":"-0.00003519","LAUNCH_DATE":"2022-07-17","SEMIMAJOR_AXIS":"6917.861","ECCENTRICITY":"0.00029580","REF_FRAME":"TEME","FILE":"3724842","OBJECT_ID":"2022-083W","ELEMENT_SET_NO":"999","MEAN_MOTION_DDOT":"0.0000000000000","INCLINATION":"53.2170","MEAN_MOTION":"15.08846272","REV_AT_EPOCH":"2576","MEAN_ELEMENT_THEORY":"SGP4","DECAY_DATE":null,"OBJECT_NAME":"STARLINK-4045","OBJECT_TYPE":"PAYLOAD","RCS_SIZE":"LARGE","NORAD_CAT_ID":"53152","PERIOD":"95.437"}];
